[{"OBJECT_NAME":"STARLINK-1327","OBJECT_ID":"2020-025AA","EPOCH":"2026-03-10T00:00:02.999808","MEAN_MOTION":15.54084798,"ECCENTRICITY":0.00066285,"INCLINATION":53.0481,"RA_OF_ASC_NODE":65.1345,"ARG_OF_PERICENTER":60.0228,"MEAN_ANOMALY":82.823,"EPHEMERIS_TYPE":0,"CLASSIFICATION_TYPE":"U","NORAD_CAT_ID":45555,"ELEMENT_SET_NO":999,"REV_AT_EPOCH":591,"BSTAR":0.0019393015,"MEAN_MOTION_DOT":0.00129734,"MEAN_MOTION_DDOT":0},{"OBJECT_NAME":"STARLINK-36600","OBJECT_ID":"2026-020G","EPOCH":"2026-03-09T22:00:01.999584","MEAN_MOTION":15.67643994,"ECCENTRICITY":0.00013173,"INCLINATION":42.9997,"RA_OF_ASC_NODE":140.9249,"ARG_OF_PERICENTER":269.1521,"MEAN_ANOMALY":338.3082,"EPHEMERIS_TYPE":0,"CLASSIFICATION_TYPE":"U","NORAD_CAT_ID":67623,"ELEMENT_SET_NO":999,"REV_AT_EPOCH":604,"BSTAR":-0.019817162,"MEAN_MOTION_DOT":-0.01966129,"MEAN_MOTION_DDOT":0}]
